ONEWEB-0371             
1 49297U 21090U   26198.28913061  .00000093  00000+0  19894-3 0  9994
2 49297  87.9193 298.9740 0002107 101.7671 258.3698 13.19725832230425
ONEWEB-0372             
1 49298U 21090V   26198.16186266  .00000057  00000+0  10838-3 0  9990
2 49298  87.9183 268.4697 0002113  98.9643 261.1730 13.20769998233796
ONEWEB-0373             
1 49299U 21090W   26197.73270714 -.00000075  00000+0 -21712-3 0  9990
2 49299  87.9185 268.5544 0002080  96.0097 264.1274 13.20772869234929
ONEWEB-0374             
1 49300U 21090X   26198.18525001 -.00000132  00000+0 -39010-3 0  9999
2 49300  87.8970 283.7218 0001538  88.3682 271.7624 13.14503274231500
ONEWEB-0375             
1 49301U 21090Y   26197.72092575 -.00000051  00000+0 -15744-3 0  9992
2 49301  87.9187 268.5488 0001634  87.1363 272.9958 13.20772792234429
ONEWEB-0376             
1 49302U 21090Z   26198.28754094  .00000049  00000+0  90999-4 0  9997
2 49302  87.9193 298.9742 0002115 106.2633 253.8732 13.19727179230426
ONEWEB-0377             
1 49303U 21090AA  26197.70756864  .00002353  00000+0  57527-2 0  9999
2 49303  87.9183 268.5539 0002061  93.1783 266.9586 13.20792686234415
ONEWEB-0378             
1 49304U 21090AB  26198.18235378  .00000015  00000+0  51333-5 0  9990
2 49304  87.9180 268.4626 0001909  97.7553 262.3797 13.20772072233740
ONEWEB-0379             
1 49305U 21090AC  26198.18050006 -.00000099  00000+0 -30084-3 0  9996
2 49305  87.8968 283.7326 0001912  98.3280 261.8067 13.14502660231502
ONEWEB-0380             
1 49306U 21090AD  26197.82949285 -.00000027  00000+0 -10000-3 0  9990
2 49306  87.9186 299.0688 0001983  95.1079 265.0280 13.19726611230338
ONEWEB-0381             
1 49307U 21090AE  26197.70408228 -.00000011  00000+0 -60152-4 0  9992
2 49307  87.9184 268.5590 0001837  93.9457 266.1886 13.20770195233722
ONEWEB-0382             
1 49308U 21090AF  26198.14517751  .00000090  00000+0  18849-3 0  9994
2 49308  87.9184 268.4650 0001798  97.0834 263.0504 13.20772156233776
ONEWEB-0383             
1 49309U 21090AG  26198.17415699  .00000014  00000+0  35537-5 0  9997
2 49309  87.8974 283.7260 0001884 102.1366 257.9975 13.14503054231532
ONEWEB-0384             
1 49310U 21090AH  26198.13286694  .00000118  00000+0  25934-3 0  9999
2 49310  87.9185 268.5115 0001614 100.2252 259.9064 13.20814920233787
ONEWEB-0385             
1 49311U 21090AJ  26198.13843295  .00000146  00000+0  32676-3 0  9998
2 49311  87.9185 268.4718 0001929  96.8717 263.2636 13.20770518233755
ONEWEB-0386             
1 49312U 21090AK  26198.15525644  .00000102  00000+0  21776-3 0  9997
2 49312  87.9186 268.4605 0001834  98.6714 261.4627 13.20773593233772
